[Satellite]
VERSION=1.1
NAME=FENGYUN 2E
NICKNAME=FENGYUN 2E
TLE1=1 33463U 08066A   17186.00273512 -.00000209  00000-0  00000-0 0  9994
TLE2=2 33463   2.2171  67.2647 0004240 211.7168  91.8507  1.00274486 31301
